{
  "type": "FeatureCollection",
  "features": [
    {
      "type": "Feature",
      "properties": {
        "norad_id": 66631,
        "name": "STARLINK-35965",
        "group": "last-30-days",
        "lat": -53.085903301282755,
        "lon": 142.81898798563634,
        "alt_km": 329.10287841049285,
        "timestamp": "2025-12-04T03:47:53.337462+00:00",
        "meta_object_name": "STARLINK-35965",
        "meta_object_id": "2025-271Q",
        "meta_epoch": "2025-12-02T16:00:03.000096",
        "meta_mean_motion": 15.86856973,
        "meta_eccentricity": 5.39e-05,
        "meta_inclination": 53.1575,
        "meta_ra_of_asc_node": 236.8346,
        "meta_arg_of_pericenter": 98.141,
        "meta_mean_anomaly": 300.6509,
        "meta_ephemeris_type": 0,
        "meta_classification_type": "U",
        "meta_norad_cat_id": 66631,
        "meta_element_set_no": 999,
        "meta_rev_at_epoch": 262,
        "meta_bstar": -0.0063895,
        "meta_mean_motion_dot": -0.01455528,
        "meta_mean_motion_ddot": 0,
        "tle_line1": "1 66631U 25271Q   25336.66670139 -.01455528  00000+0 -63895-2 0  9990",
        "tle_line2": "2 66631  53.1575 236.8346 0000539  98.1410 300.6509 15.86856973  2623"
      },
      "geometry": {
        "type": "Point",
        "coordinates": [
          142.81898798563634,
          -53.085903301282755
        ]
      }
    },
    {
      "type": "Feature",
      "properties": {
        "norad_id": 66632,
        "name": "STARLINK-35973",
        "group": "last-30-days",
        "lat": -52.909680363538655,
        "lon": 146.6669969959641,
        "alt_km": 329.0575786159043,
        "timestamp": "2025-12-04T03:47:53.337478+00:00",
        "meta_object_name": "STARLINK-35973",
        "meta_object_id": "2025-271R",
        "meta_epoch": "2025-12-02T16:00:03.000096",
        "meta_mean_motion": 15.86879822,
        "meta_eccentricity": 5.39e-05,
        "meta_inclination": 53.1573,
        "meta_ra_of_asc_node": 236.8297,
        "meta_arg_of_pericenter": 93.5353,
        "meta_mean_anomaly": 307.4968,
        "meta_ephemeris_type": 0,
        "meta_classification_type": "U",
        "meta_norad_cat_id": 66632,
        "meta_element_set_no": 999,
        "meta_rev_at_epoch": 256,
        "meta_bstar": -0.0064001,
        "meta_mean_motion_dot": -0.01459034,
        "meta_mean_motion_ddot": 0,
        "tle_line1": "1 66632U 25271R   25336.66670139 -.01459034  00000+0 -64001-2 0  9997",
        "tle_line2": "2 66632  53.1573 236.8297 0000539  93.5353 307.4968 15.86879822  2567"
      },
      "geometry": {
        "type": "Point",
        "coordinates": [
          146.6669969959641,
          -52.909680363538655
        ]
      }
    },
    {
      "type": "Feature",
      "properties": {
        "norad_id": 66633,
        "name": "STARLINK-35948",
        "group": "last-30-days",
        "lat": -52.609982693779386,
        "lon": 150.473700548111,
        "alt_km": 329.1625073657815,
        "timestamp": "2025-12-04T03:47:53.337488+00:00",
        "meta_object_name": "STARLINK-35948",
        "meta_object_id": "2025-271S",
        "meta_epoch": "2025-12-02T16:00:03.000096",
        "meta_mean_motion": 15.86911055,
        "meta_eccentricity": 6.61e-05,
        "meta_inclination": 53.1571,
        "meta_ra_of_asc_node": 236.8249,
        "meta_arg_of_pericenter": 111.1905,
        "meta_mean_anomaly": 292.1096,
        "meta_ephemeris_type": 0,
        "meta_classification_type": "U",
        "meta_norad_cat_id": 66633,
        "meta_element_set_no": 999,
        "meta_rev_at_epoch": 262,
        "meta_bstar": -0.0064504,
        "meta_mean_motion_dot": -0.01501676,
        "meta_mean_motion_ddot": 0,
        "tle_line1": "1 66633U 25271S   25336.66670139 -.01501676  00000+0 -64504-2 0  9996",
        "tle_line2": "2 66633  53.1571 236.8249 0000661 111.1905 292.1096 15.86911055  2623"
      },
      "geometry": {
        "type": "Point",
        "coordinates": [
          150.473700548111,
          -52.609982693779386
        ]
      }
    },
    {
      "type": "Feature",
      "properties": {
        "norad_id": 66634,
        "name": "STARLINK-35967",
        "group": "last-30-days",
        "lat": -52.23300597984443,
        "lon": 153.8813480263084,
        "alt_km": 328.9994783082948,
        "timestamp": "2025-12-04T03:47:53.337498+00:00",
        "meta_object_name": "STARLINK-35967",
        "meta_object_id": "2025-271T",
        "meta_epoch": "2025-12-02T16:00:03.000096",
        "meta_mean_motion": 15.86939505,
        "meta_eccentricity": 5.76e-05,
        "meta_inclination": 53.1571,
        "meta_ra_of_asc_node": 236.8206,
        "meta_arg_of_pericenter": 96.7846,
        "meta_mean_anomaly": 308.4776,
        "meta_ephemeris_type": 0,
        "meta_classification_type": "U",
        "meta_norad_cat_id": 66634,
        "meta_element_set_no": 999,
        "meta_rev_at_epoch": 255,
        "meta_bstar": -0.0064377,
        "meta_mean_motion_dot": -0.01500867,
        "meta_mean_motion_ddot": 0,
        "tle_line1": "1 66634U 25271T   25336.66670139 -.01500867  00000+0 -64377-2 0  9996",
        "tle_line2": "2 66634  53.1571 236.8206 0000576  96.7846 308.4776 15.86939505  2552"
      },
      "geometry": {
        "type": "Point",
        "coordinates": [
          153.8813480263084,
          -52.23300597984443
        ]
      }
    },
    {
      "type": "Feature",
      "properties": {
        "norad_id": 66635,
        "name": "STARLINK-35955",
        "group": "last-30-days",
        "lat": -51.62390377134794,
        "lon": 158.06296129464872,
        "alt_km": 329.11905783918155,
        "timestamp": "2025-12-04T03:47:53.337509+00:00",
        "meta_object_name": "STARLINK-35955",
        "meta_object_id": "2025-271U",
        "meta_epoch": "2025-12-02T16:00:03.000096",
        "meta_mean_motion": 15.86960793,
        "meta_eccentricity": 6.53e-05,
        "meta_inclination": 53.157,
        "meta_ra_of_asc_node": 236.815,
        "meta_arg_of_pericenter": 105.7815,
        "meta_mean_anomaly": 302.1513,
        "meta_ephemeris_type": 0,
        "meta_classification_type": "U",
        "meta_norad_cat_id": 66635,
        "meta_element_set_no": 999,
        "meta_rev_at_epoch": 262,
        "meta_bstar": -0.0065019,
        "meta_mean_motion_dot": -0.01515561,
        "meta_mean_motion_ddot": 0,
        "tle_line1": "1 66635U 25271U   25336.66670139 -.01515561  00000+0 -65019-2 0  9998",
        "tle_line2": "2 66635  53.1570 236.8150 0000653 105.7815 302.1513 15.86960793  2624"
      },
      "geometry": {
        "type": "Point",
        "coordinates": [
          158.06296129464872,
          -51.62390377134794
        ]
      }
    },
    {
      "type": "Feature",
      "properties": {
        "norad_id": 66636,
        "name": "STARLINK-35968",
        "group": "last-30-days",
        "lat": -51.058563756414976,
        "lon": 161.18601924014854,
        "alt_km": 329.05254496831094,
        "timestamp": "2025-12-04T03:47:53.337519+00:00",
        "meta_object_name": "STARLINK-35968",
        "meta_object_id": "2025-271V",
        "meta_epoch": "2025-12-02T16:00:03.000096",
        "meta_mean_motion": 15.86994967,
        "meta_eccentricity": 6.47e-05,
        "meta_inclination": 53.157,
        "meta_ra_of_asc_node": 236.8109,
        "meta_arg_of_pericenter": 112.1776,
        "meta_mean_anomaly": 297.6565,
        "meta_ephemeris_type": 0,
        "meta_classification_type": "U",
        "meta_norad_cat_id": 66636,
        "meta_element_set_no": 999,
        "meta_rev_at_epoch": 262,
        "meta_bstar": -0.0065178,
        "meta_mean_motion_dot": -0.01521091,
        "meta_mean_motion_ddot": 0,
        "tle_line1": "1 66636U 25271V   25336.66670139 -.01521091  00000+0 -65178-2 0  9990",
        "tle_line2": "2 66636  53.1570 236.8109 0000647 112.1776 297.6565 15.86994967  2625"
      },
      "geometry": {
        "type": "Point",
        "coordinates": [
          161.18601924014854,
          -51.058563756414976
        ]
      }
    },
    {
      "type": "Feature",
      "properties": {
        "norad_id": 66637,
        "name": "STARLINK-35953",
        "group": "last-30-days",
        "lat": -50.314812668971165,
        "lon": 164.6488091039617,
        "alt_km": 328.9195669328328,
        "timestamp": "2025-12-04T03:47:53.337531+00:00",
        "meta_object_name": "STARLINK-35953",
        "meta_object_id": "2025-271W",
        "meta_epoch": "2025-12-02T16:00:03.000096",
        "meta_mean_motion": 15.87022927,
        "meta_eccentricity": 4.94e-05,
        "meta_inclination": 53.157,
        "meta_ra_of_asc_node": 236.8063,
        "meta_arg_of_pericenter": 104.6163,
        "meta_mean_anomaly": 307.4827,
        "meta_ephemeris_type": 0,
        "meta_classification_type": "U",
        "meta_norad_cat_id": 66637,
        "meta_element_set_no": 999,
        "meta_rev_at_epoch": 262,
        "meta_bstar": -0.0065583,
        "meta_mean_motion_dot": -0.01531191,
        "meta_mean_motion_ddot": 0,
        "tle_line1": "1 66637U 25271W   25336.66670139 -.01531191  00000+0 -65583-2 0  9993",
        "tle_line2": "2 66637  53.1570 236.8063 0000494 104.6163 307.4827 15.87022927  2621"
      },
      "geometry": {
        "type": "Point",
        "coordinates": [
          164.6488091039617,
          -50.314812668971165
        ]
      }
    }
  ]
}